{"type": "FeatureCollection", "features": [ {"type": "Feature", "properties": {"norad_id": 34014, "name": "COSMOS 2251 DEB", "group": "cosmos-2251-debris", "lat": 3.159943102625635, "lon": 82.33802509094447, "alt_km": 671.9311638167537, "timestamp": "2025-12-21T16:47:55.132367+00:00", "meta": {"OBJECT_NAME": "COSMOS 2251 DEB", "OBJECT_ID": "1993-036GZ", "EPOCH": "2025-12-21T05:08:14.141184", "MEAN_MOTION": 14.73228686, "ECCENTRICITY": 0.00374091, "INCLINATION": 74.0175, "RA_OF_ASC_NODE": 264.1922, "ARG_OF_PERICENTER": 41.4794, "MEAN_ANOMALY": 78.904, "EPHEMERIS_TYPE": 0, "CLASSIFICATION_TYPE": "U", "NORAD_CAT_ID": 34014, "ELEMENT_SET_NO": 999, "REV_AT_EPOCH": 89428, "BSTAR": 0.00058417491, "MEAN_MOTION_DOT": 3.783e-05, "MEAN_MOTION_DDOT": 0}, "tle": {"line1": "1 34014U 93036GZ  25355.21405256  .00003783  00000+0  58417-3 0  9996", "line2": "2 34014  74.0175 264.1922 0037409  41.4794  78.9040 14.73228686894282"}}, "geometry": {"type": "Point", "coordinates": [82.33802509094447, 3.159943102625635]}}, {"type": "Feature", "properties": {"norad_id": 34015, "name": "COSMOS 2251 DEB", "group": "cosmos-2251-debris", "lat": -54.13871690455725, "lon": -14.344905634182561, "alt_km": 683.8889848285353, "timestamp": "2025-12-21T16:47:55.132377+00:00", "meta": {"OBJECT_NAME": "COSMOS 2251 DEB", "OBJECT_ID": "1993-036HA", "EPOCH": "2025-12-21T12:44:32.644032", "MEAN_MOTION": 14.60356112, "ECCENTRICITY": 0.0020925, "INCLINATION": 74.0238, "RA_OF_ASC_NODE": 142.6291, "ARG_OF_PERICENTER": 239.1216, "MEAN_ANOMALY": 190.1084, "EPHEMERIS_TYPE": 0, "CLASSIFICATION_TYPE": "U", "NORAD_CAT_ID": 34015, "ELEMENT_SET_NO": 999, "REV_AT_EPOCH": 88659, "BSTAR": 0.0010589, "MEAN_MOTION_DOT": 5.11e-05, "MEAN_MOTION_DDOT": 0}, "tle": {"line1": "1 34015U 93036HA  25355.53093338  .00005110  00000+0  10589-2 0  9999", "line2": "2 34015  74.0238 142.6291 0020925 239.1216 190.1084 14.60356112886594"}}, "geometry": {"type": "Point", "coordinates": [-14.344905634182561, -54.13871690455725]}}, {"type": "Feature", "properties": {"norad_id": 34018, "name": "COSMOS 2251 DEB", "group": "cosmos-2251-debris", "lat": -15.45007616726354, "lon": 72.32719943830801, "alt_km": 1077.5757565235672, "timestamp": "2025-12-21T16:47:55.132388+00:00", "meta": {"OBJECT_NAME": "COSMOS 2251 DEB", "OBJECT_ID": "1993-036HD", "EPOCH": "2025-12-21T06:43:04.930752", "MEAN_MOTION": 13.81081009, "ECCENTRICITY": 0.0263277, "INCLINATION": 73.878, "RA_OF_ASC_NODE": 77.6238, "ARG_OF_PERICENTER": 111.8742, "MEAN_ANOMALY": 307.0391, "EPHEMERIS_TYPE": 0, "CLASSIFICATION_TYPE": "U", "NORAD_CAT_ID": 34018, "ELEMENT_SET_NO": 999, "REV_AT_EPOCH": 84775, "BSTAR": 0.00029152, "MEAN_MOTION_DOT": 3.79e-06, "MEAN_MOTION_DDOT": 0}, "tle": {"line1": "1 34018U 93036HD  25355.27991818  .00000379  00000+0  29152-3 0  9992", "line2": "2 34018  73.8780  77.6238 0263277 111.8742 307.0391 13.81081009847750"}}, "geometry": {"type": "Point", "coordinates": [72.32719943830801, -15.45007616726354]}}, {"type": "Feature", "properties": {"norad_id": 34019, "name": "COSMOS 2251 DEB", "group": "cosmos-2251-debris", "lat": 15.189350027069173, "lon": 38.743302921528915, "alt_km": 821.3023588707965, "timestamp": "2025-12-21T16:47:55.132399+00:00", "meta": {"OBJECT_NAME": "COSMOS 2251 DEB", "OBJECT_ID": "1993-036HE", "EPOCH": "2025-12-21T05:19:10.216128", "MEAN_MOTION": 14.33972929, "ECCENTRICITY": 0.0062396, "INCLINATION": 73.9539, "RA_OF_ASC_NODE": 35.1411, "ARG_OF_PERICENTER": 215.1393, "MEAN_ANOMALY": 212.4319, "EPHEMERIS_TYPE": 0, "CLASSIFICATION_TYPE": "U", "NORAD_CAT_ID": 34019, "ELEMENT_SET_NO": 999, "REV_AT_EPOCH": 87642, "BSTAR": 0.00059724, "MEAN_MOTION_DOT": 1.677e-05, "MEAN_MOTION_DDOT": 0}, "tle": {"line1": "1 34019U 93036HE  25355.22164602  .00001677  00000+0  59724-3 0  9991", "line2": "2 34019  73.9539  35.1411 0062396 215.1393 212.4319 14.33972929876428"}}, "geometry": {"type": "Point", "coordinates": [38.743302921528915, 15.189350027069173]}}, {"type": "Feature", "properties": {"norad_id": 34021, "name": "COSMOS 2251 DEB", "group": "cosmos-2251-debris", "lat": -74.01374680956, "lon": 25.315031503663874, "alt_km": 718.2438305679534, "timestamp": "2025-12-21T16:47:55.132409+00:00", "meta": {"OBJECT_NAME": "COSMOS 2251 DEB", "OBJECT_ID": "1993-036HG", "EPOCH": "2025-12-21T09:11:27.909024", "MEAN_MOTION": 14.4997632, "ECCENTRICITY": 0.0020988, "INCLINATION": 74.036, "RA_OF_ASC_NODE": 113.5998, "ARG_OF_PERICENTER": 256.8538, "MEAN_ANOMALY": 159.7796, "EPHEMERIS_TYPE": 0, "CLASSIFICATION_TYPE": "U", "NORAD_CAT_ID": 34021, "ELEMENT_SET_NO": 999, "REV_AT_EPOCH": 88755, "BSTAR": 0.00036323, "MEAN_MOTION_DOT": 1.382e-05, "MEAN_MOTION_DDOT": 0}, "tle": {"line1": "1 34021U 93036HG  25355.38296191  .00001382  00000+0  36323-3 0  9993", "line2": "2 34021  74.0360 113.5998 0020988 256.8538 159.7796 14.49976320887554"}}, "geometry": {"type": "Point", "coordinates": [25.315031503663874, -74.01374680956]}}, {"type": "Feature", "properties": {"norad_id": 34022, "name": "COSMOS 2251 DEB", "group": "cosmos-2251-debris", "lat": 73.81809113910101, "lon": -5.869237892348012, "alt_km": 766.0577037491876, "timestamp": "2025-12-21T16:47:55.132420+00:00", "meta": {"OBJECT_NAME": "COSMOS 2251 DEB", "OBJECT_ID": "1993-036HH", "EPOCH": "2025-12-21T12:11:08.373120", "MEAN_MOTION": 14.38975294, "ECCENTRICITY": 0.0022995, "INCLINATION": 74.054, "RA_OF_ASC_NODE": 254.6395, "ARG_OF_PERICENTER": 318.1832, "MEAN_ANOMALY": 219.0619, "EPHEMERIS_TYPE": 0, "CLASSIFICATION_TYPE": "U", "NORAD_CAT_ID": 34022, "ELEMENT_SET_NO": 999, "REV_AT_EPOCH": 88321, "BSTAR": 0.00017157, "MEAN_MOTION_DOT": 5.04e-06, "MEAN_MOTION_DDOT": 0}, "tle": {"line1": "1 34022U 93036HH  25355.50773580  .00000504  00000+0  17157-3 0  9999", "line2": "2 34022  74.0540 254.6395 0022995 318.1832 219.0619 14.38975294883212"}}, "geometry": {"type": "Point", "coordinates": [-5.869237892348012, 73.81809113910101]}}, {"type": "Feature", "properties": {"norad_id": 34023, "name": "COSMOS 2251 DEB", "group": "cosmos-2251-debris", "lat": 59.5502927764553, "lon": -95.67443931492731, "alt_km": 751.4561207443576, "timestamp": "2025-12-21T16:47:55.132430+00:00", "meta": {"OBJECT_NAME": "COSMOS 2251 DEB", "OBJECT_ID": "1993-036HJ", "EPOCH": "2025-12-21T02:14:19.944960", "MEAN_MOTION": 14.40576503, "ECCENTRICITY": 0.00187819, "INCLINATION": 74.0244, "RA_OF_ASC_NODE": 236.2841, "ARG_OF_PERICENTER": 330.7165, "MEAN_ANOMALY": 187.9479, "EPHEMERIS_TYPE": 0, "CLASSIFICATION_TYPE": "U", "NORAD_CAT_ID": 34023, "ELEMENT_SET_NO": 999, "REV_AT_EPOCH": 88334, "BSTAR": 0.00020252701, "MEAN_MOTION_DOT": 6.2e-06, "MEAN_MOTION_DDOT": 0}, "tle": {"line1": "1 34023U 93036HJ  25355.09328640  .00000620  00000+0  20253-3 0  9997", "line2": "2 34023  74.0244 236.2841 0018781 330.7165 187.9479 14.40576503883347"}}, "geometry": {"type": "Point", "coordinates": [-95.67443931492731, 59.5502927764553]}}, {"type": "Feature", "properties": {"norad_id": 34024, "name": "COSMOS 2251 DEB", "group": "cosmos-2251-debris", "lat": -73.59621814212213, "lon": -164.09986497614227, "alt_km": 778.5786824395946, "timestamp": "2025-12-21T16:47:55.132440+00:00", "meta": {"OBJECT_NAME": "COSMOS 2251 DEB", "OBJECT_ID": "1993-036HK", "EPOCH": "2025-12-21T07:57:14.762304", "MEAN_MOTION": 14.35404914, "ECCENTRICITY": 0.0021436, "INCLINATION": 74.0467, "RA_OF_ASC_NODE": 300.2456, "ARG_OF_PERICENTER": 349.1687, "MEAN_ANOMALY": 173.6791, "EPHEMERIS_TYPE": 0, "CLASSIFICATION_TYPE": "U", "NORAD_CAT_ID": 34024, "ELEMENT_SET_NO": 999, "REV_AT_EPOCH": 88147, "BSTAR": 0.00014254, "MEAN_MOTION_DOT": 3.84e-06, "MEAN_MOTION_DDOT": 0}, "tle": {"line1": "1 34024U 93036HK  25355.33142086  .00000384  00000+0  14254-3 0  9994", "line2": "2 34024  74.0467 300.2456 0021436 349.1687 173.6791 14.35404914881474"}}, "geometry": {"type": "Point", "coordinates": [-164.09986497614227, -73.59621814212213]}}, {"type": "Feature", "properties": {"norad_id": 34026, "name": "COSMOS 2251 DEB", "group": "cosmos-2251-debris", "lat": 48.99382735020171, "lon": -18.037903409040364, "alt_km": 1203.3597206162003, "timestamp": "2025-12-21T16:47:55.132451+00:00", "meta": {"OBJECT_NAME": "COSMOS 2251 DEB", "OBJECT_ID": "1993-036HM", "EPOCH": "2025-12-21T08:31:12.086400", "MEAN_MOTION": 13.6531918, "ECCENTRICITY": 0.0349854, "INCLINATION": 73.7668, "RA_OF_ASC_NODE": 322.9589, "ARG_OF_PERICENTER": 191.6609, "MEAN_ANOMALY": 328.0725, "EPHEMERIS_TYPE": 0, "CLASSIFICATION_TYPE": "U", "NORAD_CAT_ID": 34026, "ELEMENT_SET_NO": 999, "REV_AT_EPOCH": 83649, "BSTAR": 0.00037826, "MEAN_MOTION_DOT": 4.44e-06, "MEAN_MOTION_DDOT": 0}, "tle": {"line1": "1 34026U 93036HM  25355.35500100  .00000444  00000+0  37826-3 0  9990", "line2": "2 34026  73.7668 322.9589 0349854 191.6609 328.0725 13.65319180836491"}}, "geometry": {"type": "Point", "coordinates": [-18.037903409040364, 48.99382735020171]}}, {"type": "Feature", "properties": {"norad_id": 34028, "name": "COSMOS 2251 DEB", "group": "cosmos-2251-debris", "lat": 61.28798384022023, "lon": 5.371050422247422, "alt_km": 869.309552727952, "timestamp": "2025-12-21T16:47:55.132462+00:00", "meta": {"OBJECT_NAME": "COSMOS 2251 DEB", "OBJECT_ID": "1993-036HP", "EPOCH": "2025-12-21T09:46:13.960128", "MEAN_MOTION": 13.20629697, "ECCENTRICITY": 0.0543522, "INCLINATION": 73.8836, "RA_OF_ASC_NODE": 333.962, "ARG_OF_PERICENTER": 110.3178, "MEAN_ANOMALY": 8.103, "EPHEMERIS_TYPE": 0, "CLASSIFICATION_TYPE": "U", "NORAD_CAT_ID": 34028, "ELEMENT_SET_NO": 999, "REV_AT_EPOCH": 81122, "BSTAR": 0.00047266, "MEAN_MOTION_DOT": 4.01e-06, "MEAN_MOTION_DDOT": 0}, "tle": {"line1": "1 34028U 93036HP  25355.40710602  .00000401  00000+0  47266-3 0  9990", "line2": "2 34028  73.8836 333.9620 0543522 110.3178   8.1030 13.20629697811223"}}, "geometry": {"type": "Point", "coordinates": [5.371050422247422, 61.28798384022023]}}]}